name;country;address;address-add;phone;url;rubric-id;working-time;lat;lon;name,country,address,address-add,phone,url,rubric-id,working-time,lat,lon
Четыре Лапы;Россия;Москва, 3-й Митинский переулок, д. 3;;8 (800) 770-00-22;https://4lapy.ru;184107222, 184107214;ежедн. 10:00 - 22:00;55.847674;37.349434;
Четыре Лапы;Россия;Воронеж, ул. Генерала Лизюкова, д. 60;Аксиома;8 (800) 770-00-22;https://4lapy.ru;184107222, 184107214;ежедн. 09:00 - 21:00;51.706232965781;39.149554933782;
Четыре Лапы;Россия;Ярославль, Ленинградский пр-т, д. 123;Альтаир;8 (800) 770-00-22;https://4lapy.ru;184107222, 184107214;ежедн. 10:00 - 22:00;57.698011597635;39.758087103093;
Четыре Лапы;Россия;Сергиев Посад, ул. Вифанская, д. 29;Карусель;8 (800) 770-00-22;https://4lapy.ru;184107222, 184107214;ежедн. 09:00 - 21:00;56.309377965637;38.144160789601;
Четыре Лапы;Россия;Москва, Генерала Белова, д. 59;;8 (800) 770-00-22;https://4lapy.ru;184107222, 184107214;ежедн. 10:00 - 21:00;55.602946627217;37.727437831929;
Четыре Лапы;Россия;Иваново, пр-т Строителей, д. 25;Ясень;8 (800) 770-00-22;https://4lapy.ru;184107222, 184107214;ежедн. 10:00 - 22:00;56.965275234585;40.989983683738;
Четыре Лапы;Россия;Москва, ул. Новокосинская, д. 8, к. 2;;8 (800) 770-00-22;https://4lapy.ru;184107222, 184107214;ежедн. 10:00 - 21:00;55.733517038887;37.856669183738;
Четыре Лапы;Россия;Москва, ул. Саянская, д. 8А;;8 (800) 770-00-22;https://4lapy.ru;184107222, 184107214;ежедн. 10:00 - 22:00;55.767166997485;37.828813462837;
Четыре Лапы;Россия;Москва, ул. Магнитогорская, д. 2;;8 (800) 770-00-22;https://4lapy.ru;184107222, 184107214;ежедн. 10:00 - 21:00;55.772448527449;37.820999526222;
Четыре Лапы;Россия;Ярославль, Ленинградский пр-т, д. 54а;Лента;8 (800) 770-00-22;https://4lapy.ru;184107222, 184107214;ежедн. 10:00 - 21:00;57.68951474001;39.779999341041;
Четыре Лапы;Россия;Долгопрудный, Старо - Дмитровское ш., д. 11;;8 (800) 770-00-22;https://4lapy.ru;184107222, 184107214;ежедн. 10:00 - 21:00;55.964428;37.530094;
Четыре Лапы;Россия;Москва, ул. Декабристов, д. 35Г;;8 (800) 770-00-22;https://4lapy.ru;184107222, 184107214;ежедн. 10:00 - 21:00;55.861833;37.613575;
Четыре Лапы;Россия;Москва, Ленинградский пр-т, д. 74А;;8 (800) 770-00-22;https://4lapy.ru;184107222, 184107214;ежедн. 10:00 - 21:00;55.806940;37.516925;
Четыре Лапы;Россия;Реутов, ул. Ленина, д. 1А;Карат;8 (800) 770-00-22;https://4lapy.ru;184107222, 184107214;ежедн. 10:00 - 21:00;55.753321;37.857773;
Четыре Лапы;Россия;Москва, ул. Шипиловская, д. 50 к. 1 с. 1;;8 (800) 770-00-22;https://4lapy.ru;184107222, 184107214;ежедн. 10:00 - 21:00;55.621221;37.737632;
Четыре Лапы;Россия;Москва, ул. Митинская, д. 36;;8 (800) 770-00-22;https://4lapy.ru;184107222, 184107214;ежедн. 10:00 - 21:00;55.846118;37.363376;
Четыре Лапы;Россия;Серпухов, ул. Советская, вл. 111;;8 (800) 770-00-22;https://4lapy.ru;184107222, 184107214;ежедн. 10:00 - 21:00;54.935069;37.448411;
Четыре Лапы;Россия;Москва, ул. Инженерная, д. 5;Марка;8 (800) 770-00-22;https://4lapy.ru;184107222, 184107214;ежедн. 10:00 - 21:00;55.879071;37.579412;
Четыре Лапы;Россия;Москва, ул. Сходненская, д. 25;;8 (800) 770-00-22;https://4lapy.ru;184107222, 184107214;ежедн. 10:00 - 21:00;55.845501;37.438754;
Четыре Лапы;Россия;Подольск, ул. Б. Серпуховская, д. 5;Центральный;8 (800) 770-00-22;https://4lapy.ru;184107222, 184107214;ежедн. 09:00 - 21:00;55.428924416796;37.546796543569;
Четыре Лапы;Россия;Москва, ул. Генерала Кузнецова, д. 13;;8 (800) 770-00-22;https://4lapy.ru;184107222, 184107214;ежедн. 10:00 - 21:00;55.687502294089;37.859219171479;
Четыре Лапы;Россия;Москва, Жулебинский б-р, д. 9;;8 (800) 770-00-22;https://4lapy.ru;184107222, 184107214;ежедн. 10:00 - 21:00;55.697522533767;37.848434944775;
Четыре Лапы;Россия;Москва, ул. Святоозерская, д. 1А;Косино Парк;8 (800) 770-00-22;https://4lapy.ru;184107222, 184107214;ежедн. 10:00 - 22:00;55.714708135356;37.8835725;
Четыре Лапы;Россия;Москва, ул. Ташкентская, д. 2;;8 (800) 770-00-22;https://4lapy.ru;184107222, 184107214;ежедн. 10:00 - 21:00;55.710889651498;37.81830989344;
Четыре Лапы;Россия;Москва, ул. Вешняковская, д. 29;;8 (800) 770-00-22;https://4lapy.ru;184107222, 184107214;ежедн. 10:00 - 21:00;55.724100555099;37.827936676189;
Четыре Лапы;Россия;Москва, Волжский б-р, кв. 113А, корп. 1;Волжский;8 (800) 770-00-22;https://4lapy.ru;184107222, 184107214;ежедн. 10:00 - 22:00;55.700053602261;37.752421470161;
Четыре Лапы;Россия;Москва, Волгоградский пр-т, д. 1;;8 (800) 770-00-22;https://4lapy.ru;184107222, 184107214;ежедн. 10:00 - 21:00;55.732722034393;37.669310624831;
Четыре Лапы;Россия;Москва, ул. Тушинская, д. 17;Праздник;8 (800) 770-00-22;https://4lapy.ru;184107222, 184107214;ежедн. 09:00 - 21:00;55.827330296698;37.445327153442;
Четыре Лапы;Россия;Москва, ул. Героев-Панфиловцев, д. 7;Перекресток;8 (800) 770-00-22;https://4lapy.ru;184107222, 184107214;ежедн. 10:00 - 21:00;55.857257733572;37.432121881348;
Четыре Лапы;Россия;Москва, ул. Ясеневая, д. 30Б;;8 (800) 770-00-22;https://4lapy.ru;184107222, 184107214;ежедн. 10:00 - 21:00;55.604229;37.738324;
Четыре Лапы;Россия;Балашиха, ш. Энтузиастов, д. 48;Глобус;8 (800) 770-00-22;https://4lapy.ru;184107222, 184107214;ежедн. 10:00 - 21:00;55.792230;37.944865;
Четыре Лапы;Россия;Пушкино, Московский пр-т, д. 7а;;8 (800) 770-00-22;https://4lapy.ru;184107222, 184107214;ежедн. 10:00 - 21:00;56.01172111874;37.847513085896;
Четыре Лапы;Россия;Москва, ул. Авиаконструктора Миля, вл. 7;Миля;8 (800) 770-00-22;https://4lapy.ru;184107222, 184107214;ежедн. 10:00 - 22:00;55.686166246711;37.853465887468;
Четыре Лапы;Россия;Зеленоград, Центральный пр-т, корп. 407;;8 (800) 770-00-22;https://4lapy.ru;184107222, 184107214;ежедн. 10:00 - 21:00;55.997958268312;37.210174984708;
Четыре Лапы;Россия;Нижний Новгород, пр. Ленина, д. 33;Муравей;8 (800) 770-00-22;https://4lapy.ru;184107222, 184107214;ежедн. 09:00 - 21:00;56.28760259478;43.928254085896;
Четыре Лапы;Россия;Курск, ул. К. Маркса, д. 6;Central Park;8 (800) 770-00-22;https://4lapy.ru;184107222, 184107214;ежедн. 10:00 - 22:00;51.749138274209;36.191808001241;
Четыре Лапы;Россия;Химки, Юбилейный пр., д. 3А, стр. 1;;8 (800) 770-00-22;https://4lapy.ru;184107222, 184107214;ежедн. 10:00 - 21:00;55.886131273018;37.423179221478;
Четыре Лапы;Россия;Красногорск, ул. 50 лет Октября, д. 12;Парк;8 (800) 770-00-22;https://4lapy.ru;184107222, 184107214;ежедн. 10:00 - 22:00;55.817831180115;37.311158831929;
Четыре Лапы;Россия;Обнинск, ул. Красных Зорь, д. 16;Атлас;8 (800) 770-00-22;https://4lapy.ru;184107222, 184107214;ежедн. 10:00 - 22:00;55.095530155872;36.618600331265;
Четыре Лапы;Россия;Курск, ул. К. Маркса, д. 68;Мега Гринн;8 (800) 770-00-22;https://4lapy.ru;184107222, 184107214;ежедн. 10:00 - 22:00;51.762350486128;36.184129881528;
Четыре Лапы;Россия;Москва, ул. Череповецкая, д. 18;;8 (800) 770-00-22;https://4lapy.ru;184107222, 184107214;ежедн. 10:00 - 22:00;55.897670685337;37.579040145421;
Четыре Лапы;Россия;Москва, Волжский б-р, д. 7;;8 (800) 770-00-22;https://4lapy.ru;184107222, 184107214;ежедн. 10:00 - 22:00;55.716965786568;37.745994261518;
Четыре Лапы;Россия;Воронеж, ул. Кольцовская, д. 35;Центр Галереи Чижова;8 (800) 770-00-22;https://4lapy.ru;184107222, 184107214;ежедн. 10:00 - 22:00;51.667165270183;39.191861670552;
Четыре Лапы;Россия;Москва, ул. Новокосинская, д. 47;;8 (800) 770-00-22;https://4lapy.ru;184107222, 184107214;ежедн. 10:00 - 21:00;55.743929129284;37.874539272405;
Четыре Лапы;Россия;Москва, ул. Летчика Ульянина, д. 6;;8 (800) 770-00-22;https://4lapy.ru;184107222, 184107214;ежедн. 10:00 - 21:00;55.625308;37.309441;
Четыре Лапы;Россия;Волгоград, Университетский пр-т, д. 107;Акварель;8 (800) 770-00-22;https://4lapy.ru;184107222, 184107214;ежедн. 10:00 - 22:00;48.636564;44.436055;
Четыре Лапы;Россия;Фрязино, ул. Советская, д. 1B;;8 (800) 770-00-22;https://4lapy.ru;184107222, 184107214;ежедн. 10:00 - 21:00;55.952364;38.047353;
Четыре Лапы;Россия;Бор, ул. Пушкина, д. 102;;8 (800) 770-00-22;https://4lapy.ru;184107222, 184107214;ежедн. 10:00 - 21:00;56.359953;44.052717;
Четыре Лапы;Россия;Москва, Новоясеневский пр-т, д. 7;Калита;8 (800) 770-00-22;https://4lapy.ru;184107222, 184107214;ежедн. 10:00 - 22:00;55.607736186467;37.532527984633;
Четыре Лапы;Россия;Москва, ул. Ал. Монаховой, д. 30, стр.2;Перекресток;8 (800) 770-00-22;https://4lapy.ru;184107222, 184107214;ежедн. 10:00 - 21:00;55.566592;37.482924;
Четыре Лапы;Россия;Москва, ул. Миклухо - Маклая, д. 47а;;8 (800) 770-00-22;https://4lapy.ru;184107222, 184107214;ежедн. 10:00 - 21:00;55.643647407566;37.524633873016;
Четыре Лапы;Россия;Москва, ул. Вавилова, д. 3;Гагаринский;8 (800) 770-00-22;https://4lapy.ru;184107222, 184107214;ежедн. 09:00 - 22:00;55.706940549494;37.592120139881;
Четыре Лапы;Россия;Москва, ул. Полярная 3 к. 1;;8 (800) 770-00-22;https://4lapy.ru;184107222, 184107214;ежедн. 10:00 - 21:00;55.872742499173;37.636921722723;
Четыре Лапы;Россия;Москва, ул. Люблинская, д. 163/1;;8 (800) 770-00-22;https://4lapy.ru;184107222, 184107214;ежедн. 10:00 - 21:00;55.651351074267;37.744759846125;
Четыре Лапы;Россия;Москва, Новочеркасский бульвар, д. 51;;8 (800) 770-00-22;https://4lapy.ru;184107222, 184107214;ежедн. 10:00 - 21:00;55.648245040594;37.739377956576;
Четыре Лапы;Россия;Москва, ул. Братиславская, д. 13к1;;8 (800) 770-00-22;https://4lapy.ru;184107222, 184107214;ежедн. 10:00 - 22:00;55.661120125268;37.760278726086;
Четыре Лапы;Россия;Москва, ул. Братиславская, д. 27, к. 1;;8 (800) 770-00-22;https://4lapy.ru;184107222, 184107214;ежедн. 10:00 - 22:00;55.653915445029;37.767015502655;
Четыре Лапы;Россия;Москва, ул. Краснодарская, д. 57/1;;8 (800) 770-00-22;https://4lapy.ru;184107222, 184107214;ежедн. 10:00 - 21:00;55.676927003414;37.767339738955;
Четыре Лапы;Россия;Москва, ул. Совхозная, д. 39;Люблино;8 (800) 770-00-22;https://4lapy.ru;184107222, 184107214;ежедн. 10:00 - 21:00;55.673848909253;37.760662109799;
Четыре Лапы;Россия;Москва, ул. Шоссейная, д. 1/2, стр. 4;Сирень;8 (800) 770-00-22;https://4lapy.ru;184107222, 184107214;ежедн. 10:00 - 21:00;55.691709759166;37.728188139881;
Четыре Лапы;Россия;Москва, ул. Борисовские Пруды, д. 26;Ключевой;8 (800) 770-00-22;https://4lapy.ru;184107222, 184107214;ежедн. 10:00 - 22:00;55.640085866643;37.758158702016;
Четыре Лапы;Россия;Москва, ул. Кустанайская, д. 6;Столица;8 (800) 770-00-22;https://4lapy.ru;184107222, 184107214;ежедн. 10:00 - 21:00;55.619513032908;37.752274736905;
Четыре Лапы;Россия;Москва, ул. Домодедовская, д. 28;Белград;8 (800) 770-00-22;https://4lapy.ru;184107222, 184107214;ежедн. 09:00 - 21:00;55.60483241591;37.712447084223;
Четыре Лапы;Россия;Москва, Пролетарский пр-т, д. 30;Ашан;8 (800) 770-00-22;https://4lapy.ru;184107222, 184107214;ежедн. 09:00 - 22:00;55.63083983017;37.658465057139;
Четыре Лапы;Россия;Москва, ул. Мастеркова, д. 1;;8 (800) 770-00-22;https://4lapy.ru;184107222, 184107214;ежедн. 10:00 - 21:00;55.709969970473;37.658829509315;
Четыре Лапы;Россия;Москва, Тишинская пл., д. 1;Тишинка;8 (800) 770-00-22;https://4lapy.ru;184107222, 184107214;ежедн. 10:00 - 21:00;55.769261857791;37.583083821426;
Четыре Лапы;Россия;Москва, Митино 7-км Пятницкого шоссе, вл. 2;Отрада;8 (800) 770-00-22;https://4lapy.ru;184107222, 184107214;ежедн. 10:00 - 22:00;55.875954874286;37.332015425535;
Четыре Лапы;Россия;Москва, ул. Твардовского, д. 2/4, стр. 1;;8 (800) 770-00-22;https://4lapy.ru;184107222, 184107214;ежедн. 10:00 - 21:00;55.798853999823;37.389792542328;
Четыре Лапы;Россия;Москва, Осенний б-р, д. 12;Крылатский;8 (800) 770-00-22;https://4lapy.ru;184107222, 184107214;ежедн. 10:00 - 22:00;55.759207751518;37.409203766865;
Четыре Лапы;Россия;Москва, Рублевское ш., д. 28, к. 1;;8 (800) 770-00-22;https://4lapy.ru;184107222, 184107214;ежедн. 10:00 - 21:00;55.746892394965;37.421252173611;
Четыре Лапы;Россия;Москва, ул. Уссурийская, д. 9;;8 (800) 770-00-22;https://4lapy.ru;184107222, 184107214;ежедн. 10:00 - 21:00;55.823813841257;37.818955271164;
Четыре Лапы;Россия;Москва, б-р Дмитрия Донского, д. 2, стр. 1;;8 (800) 770-00-22;https://4lapy.ru;184107222, 184107214;ежедн. 10:00 - 21:00;55.570253456355;37.575822584223;
Четыре Лапы;Россия;Протвино, ул. Ленина, д. 22;Слава;8 (800) 770-00-22;https://4lapy.ru;184107222, 184107214;ежедн. 09:00 - 21:00;54.873587337336;37.220579999999;
Четыре Лапы;Россия;Москва, ул. Ак. Туполева, д. 2;Торговый город;8 (800) 770-00-22;https://4lapy.ru;184107222, 184107214;ежедн. 09:00 - 20:00;55.41666525209;37.835467958913;
Четыре Лапы;Россия;Видное, д. 2;Эко Видное;8 (800) 770-00-22;https://4lapy.ru;184107222, 184107214;ежедн. 10:00 - 22:00;55.537049461459;37.721804268422;
Четыре Лапы;Россия;Москва, ул. Теплый Стан, д. 10;;8 (800) 770-00-22;https://4lapy.ru;184107222, 184107214;ежедн. 10:00 - 21:00;55.629236201318;37.485775669312;
Четыре Лапы;Россия;Нижний Новгород, Южное шоссе, д. 35;Перекресток;8 (800) 770-00-22;https://4lapy.ru;184107222, 184107214;ежедн. 09:00 - 22:00;56.228102515046;43.863707476571;
Четыре Лапы;Россия;Москва, ул. Покровская, 20;;8 (800) 770-00-22;https://4lapy.ru;184107222, 184107214;ежедн. 10:00 - 21:00;55.701894343102;37.931620042328;
Четыре Лапы;Россия;Москва, ул. Чертановская, д. 63к2;;8 (800) 770-00-22;https://4lapy.ru;184107222, 184107214;ежедн. 10:00 - 21:00;55.596798157402;37.588862203571;
Четыре Лапы;Россия;Москва, Варшавское ш., д. 152;Сомбреро;8 (800) 770-00-22;https://4lapy.ru;184107222, 184107214;ежедн. 10:00 - 22:00;55.594586611207;37.599192806355;
Четыре Лапы;Россия;Москва, ул. Б. Тульская, д. 2;Корабль;8 (800) 770-00-22;https://4lapy.ru;184107222, 184107214;ежедн. 10:00 - 22:00;55.710215371339;37.620374324745;
Четыре Лапы;Россия;Москва, ул. Перовская, д. 32, стр. 1;;8 (800) 770-00-22;https://4lapy.ru;184107222, 184107214;ежедн. 10:00 - 21:00;55.745375718232;37.774977158984;
Четыре Лапы;Россия;Москва, ул. Саянская, д. 7;Саяны;8 (800) 770-00-22;https://4lapy.ru;184107222, 184107214;ежедн. 10:00 - 21:00;55.768065758419;37.831985991402;
Четыре Лапы;Россия;Москва, ул. Вешняковская, д. 17А;Океан;8 (800) 770-00-22;https://4lapy.ru;184107222, 184107214;ежедн. 10:00 - 21:00;55.734627895417;37.830742576973;
Четыре Лапы;Россия;Москва, Чечерский пр-д, д. 51;Бутово Молл;8 (800) 770-00-22;https://4lapy.ru;184107222, 184107214;ежедн. 10:00 - 22:00;55.524233253863;37.518234787303;
Четыре Лапы;Россия;Москва, ул. Южнобутовская, д. 97;;8 (800) 770-00-22;https://4lapy.ru;184107222, 184107214;ежедн. 10:00 - 21:00;55.534428788322;37.520612588955;
Четыре Лапы;Россия;Москва, ул. Скобелевская, д. 14;;8 (800) 770-00-22;https://4lapy.ru;184107222, 184107214;ежедн. 10:00 - 21:00;55.549087794017;37.55424982209;
Четыре Лапы;Россия;Москва, Боровское ш., д. 35;Петровский;8 (800) 770-00-22;https://4lapy.ru;184107222, 184107214;ежедн. 10:00 - 22:00;55.641365644906;37.35975149723;
Четыре Лапы;Россия;Москва, ул. Озерная, д. 50;Карусель;8 (800) 770-00-22;https://4lapy.ru;184107222, 184107214;ежедн. 09:00 - 21:00;55.66453179499;37.437448554992;
Четыре Лапы;Россия;Балашиха, ш. Энтузиастов, д. 80;МаксСити;8 (800) 770-00-22;https://4lapy.ru;184107222, 184107214;ежедн. 10:00 - 21:00;55.797963636892;37.98569298033;
Четыре Лапы;Россия;Балашиха, ул. Свердлова, д. 26;;8 (800) 770-00-22;https://4lapy.ru;184107222, 184107214;ежедн. 10:00 - 21:00;55.824472145945;37.971514167278;
Четыре Лапы;Россия;Балашиха, ул. Третьяка, д. 8;Атак;8 (800) 770-00-22;https://4lapy.ru;184107222, 184107214;ежедн. 10:00 - 21:00;55.823085829626;37.951840306884;
Четыре Лапы;Россия;Балашиха, ул. Балашихинское ш., д. 10;;8 (800) 770-00-22;https://4lapy.ru;184107222, 184107214;ежедн. 10:00 - 21:00;55.822724761219;37.932845187836;
Четыре Лапы;Россия;Балашиха, ул. Центральная, вл. 40;Эдельвейс;8 (800) 770-00-22;https://4lapy.ru;184107222, 184107214;ежедн. 10:00 - 21:00;55.751598611651;37.95593277911;
Четыре Лапы;Россия;Быково, ул. Советская, д. 11;;8 (800) 770-00-22;https://4lapy.ru;184107222, 184107214;ежедн. 10:00 - 21:00;55.625455264077;38.069389015352;
Четыре Лапы;Россия;Видное, д. 10;Курс;8 (800) 770-00-22;https://4lapy.ru;184107222, 184107214;ежедн. 10:00 - 22:00;55.551506993679;37.702346373413;
Четыре Лапы;Россия;Видное», ул. Берёзовая, д. 9;Виктория;8 (800) 770-00-22;https://4lapy.ru;184107222, 184107214;ежедн. 10:00 -22:00;55.541893886122;37.722377865002;
Четыре Лапы;Россия;Владимир, Суздальский пр-т, д. 28;Глобус;8 (800) 770-00-22;https://4lapy.ru;184107222, 184107214;ежедн. 9:00 - 22:00;56.175501779693;40.459275980376;
Четыре Лапы;Россия;Владимир, Московское ш., д. 2;Лента;8 (800) 770-00-22;https://4lapy.ru;184107222, 184107214;ежедн. 10:00 - 22:00;56.113220472837;40.334419139036;
Четыре Лапы;Россия;Владимир, ул. Гагарина, д. 5;Гагаринский;8 (800) 770-00-22;https://4lapy.ru;184107222, 184107214;ежедн. 10:00 -21:00;56.131100770995;40.401914784378;
Четыре Лапы;Россия;Москва, Новорязанское ш, д. 11;Глобус;8 (800) 770-00-22;https://4lapy.ru;184107222, 184107214;ежедн. 09:00 - 22:00;55.65805646798;37.885187336867;
Четыре Лапы;Россия;Волгоград, ул. им. Землячки, д. 110Б;Мармелад;8 (800) 770-00-22;https://4lapy.ru;184107222, 184107214;ежедн. 10:00 - 22:00;48.745088474006;44.518723354492;
Четыре Лапы;Россия;Воронеж, бул. Победы, д. 23Б;Арена;8 (800) 770-00-22;https://4lapy.ru;184107222, 184107214;ежедн. 10:00 - 22:00;51.710833674426;39.159654093254;
Четыре Лапы;Россия;Воронеж, Московский пр-т, 129/1;Московский проспект;8 (800) 770-00-22;https://4lapy.ru;184107222, 184107214;ежедн. 10:00 - 22:00;51.717910269994;39.177771716602;
Четыре Лапы;Россия;Воронеж, Ленинский пр-т, д. 117;;8 (800) 770-00-22;https://4lapy.ru;184107222, 184107214;ежедн. 10:00 - 21:00;51.672136465612;39.2517652386;
Четыре Лапы;Россия;Воронеж, ул. Героев Сибиряков, д. 65А;Армада;8 (800) 770-00-22;https://4lapy.ru;184107222, 184107214;ежедн. 10:00 - 21:00;51.646060617609;39.13892062897;
Четыре Лапы;Россия;Воронеж, ул. Домостроителей, д. 24;Лента;8 (800) 770-00-22;https://4lapy.ru;184107222, 184107214;ежедн. 10:00 - 21:00;51.652875042213;39.148597694443;
Четыре Лапы;Россия;Воронеж, ул. Ростовская, д. 58/24;Южный полюс;8 (800) 770-00-22;https://4lapy.ru;184107222, 184107214;ежедн. 10:00 - 22:00;51.603154060938;39.237883823501;
Четыре Лапы;Россия;Воскресенск, пл. Ленина, д. 5;Воскресенский;8 (800) 770-00-22;https://4lapy.ru;184107222, 184107214;ежедн. 10:00 - 22:00;55.321611529212;38.672910915344;
Четыре Лапы;Россия;Воскресенск, ул. Кагана, д. 17;Атриум;8 (800) 770-00-22;https://4lapy.ru;184107222, 184107214;ежедн. 10:00 - 21:00;55.312112224696;38.652018342326;
Четыре Лапы;Россия;Дзержинский, ул. Лесная, д. 5;;8 (800) 770-00-22;https://4lapy.ru;184107222, 184107214;ежедн. 10:00 - 21:00;55.630730841111;37.855518112509;
Четыре Лапы;Россия;Дмитров, ул. Профессиональная, д. 7;;8 (800) 770-00-22;https://4lapy.ru;184107222, 184107214;ежедн. 10:00 - 22:00;56.35253713411;37.520428545226;
Четыре Лапы;Россия;Дмитров, ул. Загорская, 36А;Малыш;8 (800) 770-00-22;https://4lapy.ru;184107222, 184107214;ежедн. 10:00 - 21:00;56.341644653053;37.522066010317;
Четыре Лапы;Россия;Долгопрудный, ул. Новый бульвар, д. 3;;8 (800) 770-00-22;https://4lapy.ru;184107222, 184107214;ежедн. 10:00 - 21:00;55.937674912539;37.508676915344;
Четыре Лапы;Россия;Долгопрудный, Лихачевский проспект, д. 64;Конфитюр;8 (800) 770-00-22;https://4lapy.ru;184107222, 184107214;ежедн. 10:00 - 22:00;55.931216931377;37.494150317791;
Четыре Лапы;Россия;Дубна, Боголюбова пр-т, д. 24А;;8 (800) 770-00-22;https://4lapy.ru;184107222, 184107214;ежедн. 10:00 - 22:00;56.735698368098;37.157284591621;
Четыре Лапы;Россия;Егорьевск, ул. Советская, д. 187;Магнит;8 (800) 770-00-22;https://4lapy.ru;184107222, 184107214;ежедн. 10:00 - 21:00;55.375858803008;39.047528595618;
Четыре Лапы;Россия;Железнодорожный, ул. Юбилейная, д. 2;;8 (800) 770-00-22;https://4lapy.ru;184107222, 184107214;ежедн. 10:00 - 21:00;55.742174248784;38.015705693973;
Четыре Лапы;Россия;Железнодорожный, ул.Советская, д. 9;Эдельвейс;8 (800) 770-00-22;https://4lapy.ru;184107222, 184107214;ежедн. 10:00 - 21:00;55.751365744382;38.011708190958;
Четыре Лапы;Россия;Железнодорожный, ул. Рождественская д. 8;;8 (800) 770-00-22;https://4lapy.ru;184107222, 184107214;ежедн. 10:00 - 21:00;55.744034710615;37.998729006877;
Четыре Лапы;Россия;Жуковский, ул. Горького, д. 5;;8 (800) 770-00-22;https://4lapy.ru;184107222, 184107214;ежедн. 10:00 - 21:00;55.592698207673;38.121392487149;
Четыре Лапы;Россия;Жуковский, ул. Дугина, 28к12;;8 (800) 770-00-22;https://4lapy.ru;184107222, 184107214;ежедн. 10:00 - 21:00;55.599097;38.089763;
Четыре Лапы;Россия;Жуковский, ул. Лацкова, д. 3;Билла;8 (800) 770-00-22;https://4lapy.ru;184107222, 184107214;ежедн. 10:00 - 21:00;55.607856724884;38.076962669868;
Четыре Лапы;Россия;Жуковский, ул. Фрунзе, д. 22;;8 (800) 770-00-22;https://4lapy.ru;184107222, 184107214;ежедн. 10:00 - 20:00;55.598120630055;38.122075206765;
Четыре Лапы;Россия;Жуковский, ул. Гагарина, д. 60А;Самолет;8 (800) 770-00-22;https://4lapy.ru;184107222, 184107214;ежедн. 10:00 - 22:00;55.610318488251;38.08844678562;
Четыре Лапы;Россия;Зеленоград, Панфиловский пр-т, д. 6А;Панфиловский;8 (800) 770-00-22;https://4lapy.ru;184107222, 184107214;ежедн. 10:00 - 22:00;56.008694220774;37.199822980169;
Четыре Лапы;Россия;Зеленоград,  ул. Жилинская, д. 1, стр. 1;Ашан;8 (800) 770-00-22;https://4lapy.ru;184107222, 184107214;ежедн. 09:00 - 22:00;55.984007042317;37.142538669312;
Четыре Лапы;Россия;Зеленоград, 1805;Омега;8 (800) 770-00-22;https://4lapy.ru;184107222, 184107214;ежедн. 10:00 - 21:00;55.979717;37.162692;
Четыре Лапы;Россия;Зеленоград, пос. Ржавки, д. 20;Зеленопарк;8 (800) 770-00-22;https://4lapy.ru;184107222, 184107214;ежедн. 10:00 - 22:00;55.998883197283;37.258697563773;
Четыре Лапы;Россия;Иваново, ул. 8 марта, д. 32;Серебряный Город;8 (800) 770-00-22;https://4lapy.ru;184107222, 184107214;ежедн. 10:00 - 22:00;57.005058748916;40.983604645411;
Четыре Лапы;Россия;Иваново, ул. Куконковых, д. 141;Ашан;8 (800) 770-00-22;https://4lapy.ru;184107222, 184107214;ежедн. 09:00 - 22:00;56.965343617842;41.027217852455;
Четыре Лапы;Россия;Иваново, ул. Лежневская, д. 55;Тополь;8 (800) 770-00-22;https://4lapy.ru;184107222, 184107214;ежедн. 10:00 - 22:00;56.982531928847;40.981835;
Четыре Лапы;Россия;Калуга, ул. Кирова, д. 20;Галерея;8 (800) 770-00-22;https://4lapy.ru;184107222, 184107214;ежедн. 09:00 - 21:00;54.514899268415;36.250054544156;
Четыре Лапы;Россия;Калуга, ул. Кирова, д. 64;;8 (800) 770-00-22;https://4lapy.ru;184107222, 184107214;ежедн. 10:00 - 21:00;54.513501139881;36.262460967436;
Четыре Лапы;Россия;Климовск, ул. Молодежная, д. 11;Глобус;8 (800) 770-00-22;https://4lapy.ru;184107222, 184107214;ежедн. 09:00 - 22:00;55.38558680278;37.544718990509;
Четыре Лапы;Россия;Клин, ул. Гагарина, 31к36;Атак;8 (800) 770-00-22;https://4lapy.ru;184107222, 184107214;ежедн. 10:00 -21:00;56.332011160053;36.730692632683;
Четыре Лапы;Россия;Ковров, ул. Лопатина, д. 7А;Ковров - Молл;8 (800) 770-00-22;https://4lapy.ru;184107222, 184107214;ежедн. 10:00 - 21:00;56.365148618138;41.303402559524;
Четыре Лапы;Россия;Коломна, пл. Восстания, д. 7;Кадо;8 (800) 770-00-22;https://4lapy.ru;184107222, 184107214;ежедн. 10:00 - 22:00;55.084105793404;38.804534311264;
Четыре Лапы;Россия;Коломна, пл. Советская, д. 8;Глобус;8 (800) 770-00-22;https://4lapy.ru;184107222, 184107214;ежедн. 10:00 - 21:00;55.095727001011;38.763996957672;
Четыре Лапы;Россия;Коломна, ул. Астахова д. 11;;8 (800) 770-00-22;https://4lapy.ru;184107222, 184107214;ежедн. 10:00 - 21:00;55.065876092993;38.752608887828;
Четыре Лапы;Россия;Королёв, пр-т Космонавтов, д. 20А;Гелиос;8 (800) 770-00-22;https://4lapy.ru;184107222, 184107214;ежедн. 10:00 - 21:00;55.914530968668;37.866754697097;
Четыре Лапы;Россия;Королёв, ул. Лесная, д. 14;;8 (800) 770-00-22;https://4lapy.ru;184107222, 184107214;ежедн. 10:00 - 21:00;55.93438642986;37.844414935597;
Четыре Лапы;Россия;Кострома, ул. Магистральная, д. 20;РИО;8 (800) 770-00-22;https://4lapy.ru;184107222, 184107214;ежедн. 10:00 - 22:00;57.742628839451;40.918824915344;
Четыре Лапы;Россия;Кострома, ул. Индустриальная, д. 32;Авокадо;8 (800) 770-00-22;https://4lapy.ru;184107222, 184107214;ежедн. 10:00 - 22:00;57.741378706868;41.005116489412;
Четыре Лапы;Россия;Красково, ул. К. Маркса, д. 28;Все для Дома;8 (800) 770-00-22;https://4lapy.ru;184107222, 184107214;ежедн. 10:00 - 21:00;55.657915686077;37.987291981536;
Четыре Лапы;Россия;Красногорск, Павшинский б-р, д. 16;;8 (800) 770-00-22;https://4lapy.ru;184107222, 184107214;ежедн. 10:00 - 21:00;55.817546349379;37.36821716447;
Четыре Лапы;Россия;Красногорск, Волоколамское ш, д. 3, стр. 1;Карамель;8 (800) 770-00-22;https://4lapy.ru;184107222, 184107214;ежедн. 10:00 - 22:00;55.818990446855;37.338895814818;
Четыре Лапы;Россия;Липецк, ул. Эдуарда Белана, д. 26, Липецк;Ашан;8 (800) 770-00-22;https://4lapy.ru;184107222, 184107214;ежедн. 10:00 - 21:00;52.574758257405;39.522832689067;
Четыре Лапы;Россия;Липецк, ул. П. Смородина, д. 13А;Армада;8 (800) 770-00-22;https://4lapy.ru;184107222, 184107214;ежедн. 10:00 - 21:00;52.588730665611;39.535593161377;
Четыре Лапы;Россия;Лобня, ул. Ленина, д. 2а;;8 (800) 770-00-22;https://4lapy.ru;184107222, 184107214;ежедн. 09:00 - 21:00;56.013357553653;37.48349903373;
Четыре Лапы;Россия;Лобня, ул. Ленина, д. 67;Катюшки;8 (800) 770-00-22;https://4lapy.ru;184107222, 184107214;ежедн. 10:00 - 22:00;56.008499393297;37.449788246033;
Четыре Лапы;Россия;Луховицы, ул. Пушкина, д. 125;Кадо;8 (800) 770-00-22;https://4lapy.ru;184107222, 184107214;ежедн. 10:00 - 22:00;54.966039242642;39.027478198477;
Четыре Лапы;Россия;Лыткарино, ул. Парковая, стр. 2;Весна;8 (800) 770-00-22;https://4lapy.ru;184107222, 184107214;ежедн. 10:00 - 22:00;55.583902516465;37.912012703829;
Четыре Лапы;Россия;Люберцы, ул. Воинов–Интернационалистов, д. 3;;8 (800) 770-00-22;https://4lapy.ru;184107222, 184107214;ежедн. 10:00 - 21:00;55.696102967032;37.902122709449;
Четыре Лапы;Россия;Люберцы, Октябрьский пр-т, д. 368;;8 (800) 770-00-22;https://4lapy.ru;184107222, 184107214;ежедн. 10:00 - 21:00;55.662845417601;37.911625072103;
Четыре Лапы;Россия;Люберцы, ул. Смирновская, д. 17;Рембыттехника;8 (800) 770-00-22;https://4lapy.ru;184107222, 184107214;ежедн. 10:00 - 21:00;55.679762601612;37.893489899568;
Четыре Лапы;Россия;Люберцы, Новорязанское ш., д. 7;Гренада;8 (800) 770-00-22;https://4lapy.ru;184107222, 184107214;ежедн. 10:00 - 22:00;55.666248711008;37.87860481531;
Четыре Лапы;Россия;Люберцы, Октябрьский пр-т, д. 112;Выходной;8 (800) 770-00-22;https://4lapy.ru;184107222, 184107214;ежедн. 10:00 - 22:00;55.685198199692;37.877501461391;
Четыре Лапы;Россия;Московский, ул. Хабарова, д. 2;Новомосковский;8 (800) 770-00-22;https://4lapy.ru;184107222, 184107214;ежедн. 10:00 - 22:00;55.593375101783;37.350743155952;
Четыре Лапы;Россия;Мытищи, Шараповский пр-д, вл. 2;Красный Кит;8 (800) 770-00-22;https://4lapy.ru;184107222, 184107214;ежедн. 10:00 - 23:00;55.916294810955;37.758967185771;
Четыре Лапы;Россия;Мытищи, ул. Семашко, д. 35;;8 (800) 770-00-22;https://4lapy.ru;184107222, 184107214;ежедн. 10:00 - 22:00;55.891978071306;37.726003128106;
Четыре Лапы;Россия;Мытищи, ул. Мира, д. 32/2;4DAILY;8 (800) 770-00-22;https://4lapy.ru;184107222, 184107214;ежедн. 10:00 - 22:00;55.921179699448;37.719557194455;
Четыре Лапы;Россия;Мытищи, ул. Летная, 21/2;;8 (800) 770-00-22;https://4lapy.ru;184107222, 184107214;ежедн. 10:00 - 21:00;55.908843144188;37.721504074961;
Четыре Лапы;Россия;Нижний Новгород, ул. Бетанкура, д. 1;Седьмое небо;8 (800) 770-00-22;https://4lapy.ru;184107222, 184107214;ежедн. 10:00 - 22:00;56.338317032182;43.955360137964;
Четыре Лапы;Россия;Нижний Новгород, ул. Коминтерна д. 115;Луч;8 (800) 770-00-22;https://4lapy.ru;184107222, 184107214;ежедн. 10:00 - 21:00;56.348728530748;43.869456369397;
Четыре Лапы;Россия;Новомосковск, ул. Трудовые резервы, д. 33Б;Первый;8 (800) 770-00-22;https://4lapy.ru;184107222, 184107214;ежедн. 10:00 - 22:00;54.015968133543;38.285967105488;
Четыре Лапы;Россия;Ногинск, ул. Соборная, д. 12;Остров;8 (800) 770-00-22;https://4lapy.ru;184107222, 184107214;ежедн. 10:00 - 21:00;55.853244982436;38.442042364418;
Четыре Лапы;Россия;Ногинск, ул. Рогожская, д. 67;Олимп;8 (800) 770-00-22;https://4lapy.ru;184107222, 184107214;ежедн. 09:00 - 21:00;55.857123935992;38.442701897973;
Четыре Лапы;Россия;Ногинск, ул. 3-го Интернационала, д. 72;;8 (800) 770-00-22;https://4lapy.ru;184107222, 184107214;ежедн. 10:00 - 21:00;55.85495393045;38.438063186508;
Четыре Лапы;Россия;Обнинск, пр-т К. Маркса, д. 45;Триумф - Плаза;8 (800) 770-00-22;https://4lapy.ru;184107222, 184107214;ежедн. 10:00 - 22:00;55.116844971508;36.593301011341;
Четыре Лапы;Россия;Обнинск, пр-т К. Маркса, д. 114;12 месяцев;8 (800) 770-00-22;https://4lapy.ru;184107222, 184107214;ежедн. 10:00 - 21:00;55.124496441393;36.614745466904;
Четыре Лапы;Россия;Одинцово, Вокзальная пл., д. 2;Андромеда;8 (800) 770-00-22;https://4lapy.ru;184107222, 184107214;ежедн. 10:00 - 21:00;55.672654901033;37.28194766169;
Четыре Лапы;Россия;Одинцово, с. Юдино, д. 55Е;Глобус;8 (800) 770-00-22;https://4lapy.ru;184107222, 184107214;ежедн. 09:00 - 22:00;55.657467935498;37.182284143403;
Четыре Лапы;Россия;Одинцово, Можайское ш., д. 71;Дубрава;8 (800) 770-00-22;https://4lapy.ru;184107222, 184107214;ежедн. 10:00 - 21:00;55.677899999994;37.281191682209;
Четыре Лапы;Россия;Одинцово, ул. Можайское ш., д. 112а;;8 (800) 770-00-22;https://4lapy.ru;184107222, 184107214;ежедн. 10:00 - 21:00;55.68513233527;37.302874549718;
Четыре Лапы;Россия;Орёл, Кромское ш., д. 4;Мега - Гринн;8 (800) 770-00-22;https://4lapy.ru;184107222, 184107214;ежедн. 10:00 - 22:00;52.921590141425;36.010768255217;
Четыре Лапы;Россия;Орехово-Зуево, ул. Ленина, д. 49;;8 (800) 770-00-22;https://4lapy.ru;184107222, 184107214;ежедн. 10:00 - 21:00;55.799178089365;38.977190508872;
Четыре Лапы;Россия;Орехово-Зуево, ул.Ленина, д. 78;Орех;8 (800) 770-00-22;https://4lapy.ru;184107222, 184107214;ежедн. 10:00 - 22:00;55.808942928569;38.991168294692;
Четыре Лапы;Россия;Павловский Посад, ул. Большая Покровская, д. 35;;8 (800) 770-00-22;https://4lapy.ru;184107222, 184107214;ежедн. 10:00 - 21:00;55.772152592255;38.653823956047;
Четыре Лапы;Россия;Подольск, ул. Ленинградская, д. 21;Западный;8 (800) 770-00-22;https://4lapy.ru;184107222, 184107214;ежедн. 10:00 - 22:00;55.424214415541;37.49351242452;
Четыре Лапы;Россия;Подольск, ул. Большая Серпуховская, д. 14;;8 (800) 770-00-22;https://4lapy.ru;184107222, 184107214;ежедн. 10:00 - 21:00;55.425666593765;37.545606093254;
Четыре Лапы;Россия;Подольск, ул. Подольская, д. 2а;;8 (800) 770-00-22;https://4lapy.ru;184107222, 184107214;ежедн. 10:00 - 21:00;55.466006015766;37.546305542328;
Четыре Лапы;Россия;Пушкино, Красноармейское ш., вл. 105;Глобус;8 (800) 770-00-22;https://4lapy.ru;184107222, 184107214;ежедн. 09:00 - 22:00;56.013440811879;37.887915164469;
Четыре Лапы;Россия;Пушкино, ул. Чехова д. 1/3;;8 (800) 770-00-22;https://4lapy.ru;184107222, 184107214;ежедн. 10:00 - 21:00;56.008817237831;37.854241696272;
Четыре Лапы;Россия;Раменское, ул. Дергаевская, д. 34;;8 (800) 770-00-22;https://4lapy.ru;184107222, 184107214;ежедн. 10:00 - 21:00;55.58081522546;38.243714004019;
Четыре Лапы;Россия;Раменское, ул. Советская, д. 16;;8 (800) 770-00-22;https://4lapy.ru;184107222, 184107214;ежедн. 10:00 - 21:00;55.567400341805;38.228782211053;
Четыре Лапы;Россия;Раменское, Вокзальная пл., д. 4Б;Солнечный Рай;8 (800) 770-00-22;https://4lapy.ru;184107222, 184107214;ежедн. 10:00 - 21:00;55.566475828751;38.224671795365;
Четыре Лапы;Россия;Реутов, Носовихинское ш., д. 45;Реутов - Парк;8 (800) 770-00-22;https://4lapy.ru;184107222, 184107214;ежедн. 10:00 - 22:00;55.752186187454;37.887268457672;
Четыре Лапы;Россия;Реутов, Юбилейный проспект, д. 41;;8 (800) 770-00-22;https://4lapy.ru;184107222, 184107214;ежедн. 10:00 - 21:00;55.752026170608;37.873864034393;
Четыре Лапы;Россия;Рязань, с. Дядьково, д. 1;Глобус;8 (800) 770-00-22;https://4lapy.ru;184107222, 184107214;ежедн. 9:00 - 22:00;54.618838130997;39.79756278839;
Четыре Лапы;Россия;Рязань, Московское ш., д. 21;Премьер;8 (800) 770-00-22;https://4lapy.ru;184107222, 184107214;ежедн. 10:00 - 22:00;54.634611747084;39.68864054586;
Четыре Лапы;Россия;Рязань, Московское ш., д. 65А;М5Молл;8 (800) 770-00-22;https://4lapy.ru;184107222, 184107214;ежедн. 10:00 - 22:00;54.649026120192;39.633742200576;
Четыре Лапы;Россия;Рязань, Первомайский пр-т, д. 70, к. 1;Виктория;8 (800) 770-00-22;https://4lapy.ru;184107222, 184107214;ежедн. 10:00 - 22:00;54.630488541531;39.710260046627;
Четыре Лапы;Россия;Сергиев Посад, Новоугличское ш., д. 85;Капитолий;8 (800) 770-00-22;https://4lapy.ru;184107222, 184107214;ежедн. 9:00 - 22:00;56.330778475533;38.130146244202;
Четыре Лапы;Россия;Сергиев Посад, ул. Вознесенская, д. 32А;Счастливая семья;8 (800) 770-00-22;https://4lapy.ru;184107222, 184107214;ежедн. 10:00 - 22:00;56.303684295519;38.133070157079;
Четыре Лапы;Россия;Серпухов, б-р 65 лет Победы, д. 4;METRO;8 (800) 770-00-22;https://4lapy.ru;184107222, 184107214;ежедн. 10:00 - 22:00;54.943724462159;37.403300020286;
Четыре Лапы;Россия;Серпухов, Борисовское ш., д. 1;Корстон;8 (800) 770-00-22;https://4lapy.ru;184107222, 184107214;ежедн. 10:00 - 22:00;54.91729797668;37.425539501765;
Четыре Лапы;Россия;Серпухов, ул. Ворошилова, д. 139;Лето;8 (800) 770-00-22;https://4lapy.ru;184107222, 184107214;ежедн. 10:00-21:00;54.924093782762;37.441596609795;
Четыре Лапы;Россия;Солнечногорск, ул. Красная, д. 22А;Солнечный;8 (800) 770-00-22;https://4lapy.ru;184107222, 184107214;ежедн. 10:00 - 22:00;56.175473415256;36.998880341821;
Четыре Лапы;Россия;Ступино, пр-т Победы, д. 63А;Курс;8 (800) 770-00-22;https://4lapy.ru;184107222, 184107214;ежедн. 10:00 - 22:00;54.886682082484;38.079248306885;
Четыре Лапы;Россия;Тверь, Октябрьский пр-т, д. 103;Торговый парк №1;8 (800) 770-00-22;https://4lapy.ru;184107222, 184107214;ежедн. 10:00 - 22:00;56.815702941952;35.885126953373;
Четыре Лапы;Россия;Тверь, ул. Коминтерна, д. 20/1;Карусель;8 (800) 770-00-22;https://4lapy.ru;184107222, 184107214;ежедн. 10:00 - 22:00;56.834851657056;35.89686785582;
Четыре Лапы;Россия;Томилино, Егорьевское ш., стр. 2;Томилино;8 (800) 770-00-22;https://4lapy.ru;184107222, 184107214;ежедн. 9:00 - 21:00;55.659027874696;37.925963997089;
Четыре Лапы;Россия;Тула, ул. Советская, д. 47;Гостиный двор;8 (800) 770-00-22;https://4lapy.ru;184107222, 184107214;ежедн. 10:00 - 22:00;54.191726752997;37.618728324081;
Четыре Лапы;Россия;Тула, с.Осиновая Гора, ул. А. Шипунова, д. 1А;Глобус;8 (800) 770-00-22;https://4lapy.ru;184107222, 184107214;ежедн. 09:00 - 22:00;54.1763221;37.6465396;
Четыре Лапы;Россия;Тула, ул. Пролетарская, д. 22А;РИО;8 (800) 770-00-22;https://4lapy.ru;184107222, 184107214;ежедн. 10:00 - 22:00;54.199384135326;37.636932873016;
Четыре Лапы;Россия;Тула, ул. Пролетарская, д. 2;Макси;8 (800) 770-00-22;https://4lapy.ru;184107222, 184107214;ежедн. 10:00 - 21:00;54.193451043281;37.63760370046;
Четыре Лапы;Россия;Тула, ул. Металлургов, д. 62А;Демидовский;8 (800) 770-00-22;https://4lapy.ru;184107222, 184107214;ежедн. 10:00 - 21:00;54.19205473568;37.688592788361;
Четыре Лапы;Россия;Фрязино, ул. 60-летия СССР, д. 10;;8 (800) 770-00-22;https://4lapy.ru;184107222, 184107214;ежедн. 10:00 - 21:00;55.949248799456;38.059965688021;
Четыре Лапы;Россия;Химки, пр-т Мельникова, стр. 2Г;Новый дом;8 (800) 770-00-22;https://4lapy.ru;184107222, 184107214;ежедн. 10:00 - 21:00;55.900202442078;37.407655159651;
Четыре Лапы;Россия;Чехов, Симферопольское ш., д. 1;Карусель;8 (800) 770-00-22;https://4lapy.ru;184107222, 184107214;ежедн. 10:00 - 21:00;55.16152343002;37.468129423279;
Четыре Лапы;Россия;Чехов, ул. Московская, вл. 96;Карнавал;8 (800) 770-00-22;https://4lapy.ru;184107222, 184107214;ежедн. 10:00 - 22:00;55.155576474192;37.463789766563;
Четыре Лапы;Россия;Щелково, Пролетарский пр-т, д. 7а;;8 (800) 770-00-22;https://4lapy.ru;184107222, 184107214;ежедн. 10:00 - 21:00;55.9173491692;37.995610381067;
Четыре Лапы;Россия;Щелково, Пролетарский пр-т, д. 18;Глобус;8 (800) 770-00-22;https://4lapy.ru;184107222, 184107214;ежедн. 9:00 - 22:00;55.929316190999;38.004617141896;
Четыре Лапы;Россия;Щелково, ул. Талсинская, д. 2;;8 (800) 770-00-22;https://4lapy.ru;184107222, 184107214;ежедн. 10:00 - 21:00;55.925599976244;37.996767093254;
Четыре Лапы;Россия;Щербинка, ул. Железнодорожная, д. 44;Акварель;8 (800) 770-00-22;https://4lapy.ru;184107222, 184107214;ежедн. 10:00 - 22:00;55.499266346869;37.567913093031;
Четыре Лапы;Россия;Электросталь, ул. Победы, д. 6к1А;;8 (800) 770-00-22;https://4lapy.ru;184107222, 184107214;ежедн. 10:00 - 21:00;55.769251948856;38.438055068167;
Четыре Лапы;Россия;Электросталь, п. Случайный, м. 1, стр. 2;Глобус;8 (800) 770-00-22;https://4lapy.ru;184107222, 184107214;ежедн. 09:00 - 22:00;55.759398928395;38.432503734561;
Четыре Лапы;Россия;Электросталь, ул. К. Маркса, д. 30А;Центральный;8 (800) 770-00-22;https://4lapy.ru;184107222, 184107214;ежедн. 09:00 - 21:00;55.797866550844;38.465461152928;
Четыре Лапы;Россия;Электросталь, пр-т Ленина, д. 0/10;Эльград;8 (800) 770-00-22;https://4lapy.ru;184107222, 184107214;ежедн. 10:00 - 22:00;55.812721716507;38.43017039976;
Четыре Лапы;Россия;Электросталь, пр-т Ленина, д. 33/15;;8 (800) 770-00-22;https://4lapy.ru;184107222, 184107214;ежедн. 10:00 - 21:00;55.791997086712;38.442369521318;
Четыре Лапы;Россия;Ярославль, Московский пр-т, д. 108;Шоколад;8 (800) 770-00-22;https://4lapy.ru;184107222, 184107214;ежедн. 10:00 - 22:00;57.57652051716;39.843139493304;
Четыре Лапы;Россия;Ярославль, Тутаевское ш., д. 1;РИО;8 (800) 770-00-22;https://4lapy.ru;184107222, 184107214;ежедн. 09:00 - 21:00;57.670157085475;39.837924138784;
Четыре Лапы;Россия;Ярославль, пос. Красный Бор, стр. 1;Глобус;8 (800) 770-00-22;https://4lapy.ru;184107222, 184107214;ежедн. 9:00 - 22:00;57.640050232246;39.975833635582;
Четыре Лапы;Россия;Ярославль, ул. Победы, д. 41;Аура;8 (800) 770-00-22;https://4lapy.ru;184107222, 184107214;ежедн. 10:00 - 22:00;57.627474701595;39.871673352531;
Четыре Лапы;Россия;Ярославль, Ленинградский пр-т, д. 49А;Космос;8 (800) 770-00-22;https://4lapy.ru;184107222, 184107214;ежедн. 10:00 - 20:00;57.679051755002;39.790620566132;
